{
  "type": "FeatureCollection",
  "features": [
    {
      "type": "Feature",
      "properties": {
        "norad_id": 66617,
        "name": "STARLINK-35940",
        "group": "last-30-days",
        "lat": -21.635087452212886,
        "lon": 4.769776444034225,
        "alt_km": 450.50777249532985,
        "timestamp": "2025-12-16T21:38:55.917621+00:00",
        "meta_object_name": "STARLINK-35940",
        "meta_object_id": "2025-271A",
        "meta_epoch": "2025-12-16T06:00:02.999808",
        "meta_mean_motion": 15.39565629,
        "meta_eccentricity": 0.00015303,
        "meta_inclination": 53.1588,
        "meta_ra_of_asc_node": 170.5426,
        "meta_arg_of_pericenter": 114.3058,
        "meta_mean_anomaly": 77.2592,
        "meta_ephemeris_type": 0,
        "meta_classification_type": "U",
        "meta_norad_cat_id": 66617,
        "meta_element_set_no": 999,
        "meta_rev_at_epoch": 480,
        "meta_bstar": 0.00081182863,
        "meta_mean_motion_dot": 0.00032152,
        "meta_mean_motion_ddot": 0,
        "tle_line1": "1 66617U 25271A   25350.25003472  .00032152  00000+0  81183-3 0  9997",
        "tle_line2": "2 66617  53.1588 170.5426 0001530 114.3058  77.2592 15.39565629  4809"
      },
      "geometry": {
        "type": "Point",
        "coordinates": [
          4.769776444034225,
          -21.635087452212886
        ]
      }
    },
    {
      "type": "Feature",
      "properties": {
        "norad_id": 66618,
        "name": "STARLINK-35970",
        "group": "last-30-days",
        "lat": -23.454920263910946,
        "lon": 148.23415254104592,
        "alt_km": 422.3553880425443,
        "timestamp": "2025-12-16T21:38:55.917631+00:00",
        "meta_object_name": "STARLINK-35970",
        "meta_object_id": "2025-271B",
        "meta_epoch": "2025-12-16T06:00:02.999808",
        "meta_mean_motion": 15.49280342,
        "meta_eccentricity": 7.677e-05,
        "meta_inclination": 53.1588,
        "meta_ra_of_asc_node": 170.3364,
        "meta_arg_of_pericenter": 89.9327,
        "meta_mean_anomaly": 201.7375,
        "meta_ephemeris_type": 0,
        "meta_classification_type": "U",
        "meta_norad_cat_id": 66618,
        "meta_element_set_no": 999,
        "meta_rev_at_epoch": 480,
        "meta_bstar": 0.00056852587,
        "meta_mean_motion_dot": 0.00031265,
        "meta_mean_motion_ddot": 0,
        "tle_line1": "1 66618U 25271B   25350.25003472  .00031265  00000+0  56853-3 0  9998",
        "tle_line2": "2 66618  53.1588 170.3364 0000767  89.9327 201.7375 15.49280342  4806"
      },
      "geometry": {
        "type": "Point",
        "coordinates": [
          148.23415254104592,
          -23.454920263910946
        ]
      }
    },
    {
      "type": "Feature",
      "properties": {
        "norad_id": 66619,
        "name": "STARLINK-35951",
        "group": "last-30-days",
        "lat": -50.74390520015798,
        "lon": 100.75749536586011,
        "alt_km": 423.7714234094101,
        "timestamp": "2025-12-16T21:38:55.917642+00:00",
        "meta_object_name": "STARLINK-35951",
        "meta_object_id": "2025-271C",
        "meta_epoch": "2025-12-16T06:00:02.999808",
        "meta_mean_motion": 15.49279565,
        "meta_eccentricity": 4.706e-05,
        "meta_inclination": 53.1589,
        "meta_ra_of_asc_node": 170.432,
        "meta_arg_of_pericenter": 83.468,
        "meta_mean_anomaly": 162.5479,
        "meta_ephemeris_type": 0,
        "meta_classification_type": "U",
        "meta_norad_cat_id": 66619,
        "meta_element_set_no": 999,
        "meta_rev_at_epoch": 480,
        "meta_bstar": 0.00058245002,
        "meta_mean_motion_dot": 0.00032045,
        "meta_mean_motion_ddot": 0,
        "tle_line1": "1 66619U 25271C   25350.25003472  .00032045  00000+0  58245-3 0  9993",
        "tle_line2": "2 66619  53.1589 170.4320 0000470  83.4680 162.5479 15.49279565  4807"
      },
      "geometry": {
        "type": "Point",
        "coordinates": [
          100.75749536586011,
          -50.74390520015798
        ]
      }
    },
    {
      "type": "Feature",
      "properties": {
        "norad_id": 66620,
        "name": "STARLINK-35936",
        "group": "last-30-days",
        "lat": -52.24011073461737,
        "lon": 91.86594142852928,
        "alt_km": 424.1438479934259,
        "timestamp": "2025-12-16T21:38:55.917652+00:00",
        "meta_object_name": "STARLINK-35936",
        "meta_object_id": "2025-271D",
        "meta_epoch": "2025-12-16T06:00:02.999808",
        "meta_mean_motion": 15.49279151,
        "meta_eccentricity": 9.715e-05,
        "meta_inclination": 53.1588,
        "meta_ra_of_asc_node": 170.4449,
        "meta_arg_of_pericenter": 85.0403,
        "meta_mean_anomaly": 155.2232,
        "meta_ephemeris_type": 0,
        "meta_classification_type": "U",
        "meta_norad_cat_id": 66620,
        "meta_element_set_no": 999,
        "meta_rev_at_epoch": 480,
        "meta_bstar": 0.00063952096,
        "meta_mean_motion_dot": 0.00035242,
        "meta_mean_motion_ddot": 0,
        "tle_line1": "1 66620U 25271D   25350.25003472  .00035242  00000+0  63952-3 0  9998",
        "tle_line2": "2 66620  53.1588 170.4449 0000971  85.0403 155.2232 15.49279151  4804"
      },
      "geometry": {
        "type": "Point",
        "coordinates": [
          91.86594142852928,
          -52.24011073461737
        ]
      }
    },
    {
      "type": "Feature",
      "properties": {
        "norad_id": 66621,
        "name": "STARLINK-35847",
        "group": "last-30-days",
        "lat": -20.760734025695978,
        "lon": 150.69815358957726,
        "alt_km": 422.0560993158542,
        "timestamp": "2025-12-16T21:38:55.917663+00:00",
        "meta_object_name": "STARLINK-35847",
        "meta_object_id": "2025-271E",
        "meta_epoch": "2025-12-16T06:00:02.999808",
        "meta_mean_motion": 15.49278361,
        "meta_eccentricity": 6.816e-05,
        "meta_inclination": 53.1587,
        "meta_ra_of_asc_node": 170.3287,
        "meta_arg_of_pericenter": 86.7681,
        "meta_mean_anomaly": 208.4419,
        "meta_ephemeris_type": 0,
        "meta_classification_type": "U",
        "meta_norad_cat_id": 66621,
        "meta_element_set_no": 999,
        "meta_rev_at_epoch": 480,
        "meta_bstar": 0.00060069273,
        "meta_mean_motion_dot": 0.00033065,
        "meta_mean_motion_ddot": 0,
        "tle_line1": "1 66621U 25271E   25350.25003472  .00033065  00000+0  60069-3 0  9996",
        "tle_line2": "2 66621  53.1587 170.3287 0000681  86.7681 208.4419 15.49278361  4807"
      },
      "geometry": {
        "type": "Point",
        "coordinates": [
          150.69815358957726,
          -20.760734025695978
        ]
      }
    },
    {
      "type": "Feature",
      "properties": {
        "norad_id": 66622,
        "name": "STARLINK-35950",
        "group": "last-30-days",
        "lat": -50.37746433362952,
        "lon": 102.4114310768774,
        "alt_km": 426.9627337356378,
        "timestamp": "2025-12-16T21:38:55.917678+00:00",
        "meta_object_name": "STARLINK-35950",
        "meta_object_id": "2025-271F",
        "meta_epoch": "2025-12-16T06:00:02.999808",
        "meta_mean_motion": 15.49611495,
        "meta_eccentricity": 0.00010571,
        "meta_inclination": 53.1587,
        "meta_ra_of_asc_node": 170.429,
        "meta_arg_of_pericenter": 104.84,
        "meta_mean_anomaly": 143.0283,
        "meta_ephemeris_type": 0,
        "meta_classification_type": "U",
        "meta_norad_cat_id": 66622,
        "meta_element_set_no": 999,
        "meta_rev_at_epoch": 480,
        "meta_bstar": -0.017295335,
        "meta_mean_motion_dot": -0.00884225,
        "meta_mean_motion_ddot": 0,
        "tle_line1": "1 66622U 25271F   25350.25003472 -.00884225  00000+0 -17295-1 0  9992",
        "tle_line2": "2 66622  53.1587 170.4290 0001057 104.8400 143.0283 15.49611495  4804"
      },
      "geometry": {
        "type": "Point",
        "coordinates": [
          102.4114310768774,
          -50.37746433362952
        ]
      }
    },
    {
      "type": "Feature",
      "properties": {
        "norad_id": 66623,
        "name": "STARLINK-35920",
        "group": "last-30-days",
        "lat": -51.71968185047828,
        "lon": 59.17023192833859,
        "alt_km": 450.44519973057777,
        "timestamp": "2025-12-16T21:38:55.917688+00:00",
        "meta_object_name": "STARLINK-35920",
        "meta_object_id": "2025-271G",
        "meta_epoch": "2025-12-16T06:00:02.999808",
        "meta_mean_motion": 15.43350091,
        "meta_eccentricity": 0.00015678,
        "meta_inclination": 53.1592,
        "meta_ra_of_asc_node": 170.4479,
        "meta_arg_of_pericenter": 89.2681,
        "meta_mean_anomaly": 148.318,
        "meta_ephemeris_type": 0,
        "meta_classification_type": "U",
        "meta_norad_cat_id": 66623,
        "meta_element_set_no": 999,
        "meta_rev_at_epoch": 480,
        "meta_bstar": -0.050168894,
        "meta_mean_motion_dot": -0.02023263,
        "meta_mean_motion_ddot": 0,
        "tle_line1": "1 66623U 25271G   25350.25003472 -.02023263  00000+0 -50169-1 0  9999",
        "tle_line2": "2 66623  53.1592 170.4479 0001567  89.2681 148.3180 15.43350091  4803"
      },
      "geometry": {
        "type": "Point",
        "coordinates": [
          59.17023192833859,
          -51.71968185047828
        ]
      }
    }
  ]
}